[{"OBJECT_NAME":"STARLINK-3344","OBJECT_ID":"2022-005G","EPOCH":"2026-03-09T19:57:23.794560","MEAN_MOTION":15.08837664,"ECCENTRICITY":0.00014357,"INCLINATION":53.2182,"RA_OF_ASC_NODE":288.4637,"ARG_OF_PERICENTER":91.5574,"MEAN_ANOMALY":268.5583,"EPHEMERIS_TYPE":0,"CLASSIFICATION_TYPE":"U","NORAD_CAT_ID":51110,"ELEMENT_SET_NO":999,"REV_AT_EPOCH":22890,"BSTAR":-1.5577853e-5,"MEAN_MOTION_DOT":-5.36e-6,"MEAN_MOTION_DDOT":0},{"OBJECT_NAME":"CZ-4C R\/B","OBJECT_ID":"2021-026B","EPOCH":"2026-03-09T16:37:41.696544","MEAN_MOTION":15.16445633,"ECCENTRICITY":0.00393855,"INCLINATION":97.7468,"RA_OF_ASC_NODE":117.371,"ARG_OF_PERICENTER":22.5612,"MEAN_ANOMALY":337.7341,"EPHEMERIS_TYPE":0,"CLASSIFICATION_TYPE":"U","NORAD_CAT_ID":48080,"ELEMENT_SET_NO":999,"REV_AT_EPOCH":27175,"BSTAR":0.00026802982,"MEAN_MOTION_DOT":5.244e-5,"MEAN_MOTION_DDOT":0}]
